ONEWEB-0240             
1 48785U 21045U   23345.78998895  .00000138  00000+0  33328-3 0  9997
2 48785  87.9003  82.0040 0001904 121.4824 238.6493 13.15546923123652
ONEWEB-0246             
1 48786U 21045V   23345.78516553  .00000073  00000+0  16112-3 0  9995
2 48786  87.9004  82.0066 0001513 122.9531 237.1744 13.15552139123524
ONEWEB-0210             
1 48787U 21045W   23345.91192904 -.00000102  00000+0 -30567-3 0  9996
2 48787  87.9004  81.9893 0000951 119.3037 240.8188 13.15550210123584
ONEWEB-0214             
1 48788U 21045X   23345.76933050 -.00000139  00000+0 -40231-3 0  9994
2 48788  87.9004  82.0061 0000976 114.9801 245.1431 13.15548906123534
ONEWEB-0221             
1 48789U 21045Y   23345.77565917 -.00000077  00000+0 -23980-3 0  9992
2 48789  87.9006  82.0177 0001678 118.0458 242.0842 13.15550537123623
ONEWEB-0213             
1 48790U 21045Z   23345.68851283 -.00000132  00000+0 -38472-3 0  9992
2 48790  87.9005  82.0520 0001529 119.7486 240.3797 13.15549925123674
ONEWEB-0212             
1 48791U 21045AA  23346.12221804 -.00126640  00000+0 -33708+0 0  9999
2 48791  87.9007  81.9448 0001069  57.6045 302.5189 13.16357408124866
ONEWEB-0227             
1 48792U 21045AB  23345.81686068  .00000025  00000+0  33345-4 0  9990
2 48792  87.9007  82.0230 0001776 114.1205 246.0111 13.15552219123637
